LEMUR-1                 
1 40044U 14033AL  26186.34870255  .00002834  00000+0  32917-3 0  9991
2 40044  97.7902 335.7525 0048598  20.2635 340.0495 14.85316858648169
LEMUR-2-GREENBERG       
1 42837U 17042N   26187.03357599  .00018577  00000+0  60348-3 0  9994
2 42837  97.3832   7.5791 0007199 298.7832  61.2686 15.31950054491277
LEMUR-2-ANDIS           
1 42838U 17042P   26187.01867927  .00023464  00000+0  67733-3 0  9990
2 42838  97.3686   7.8149 0007135 296.9614  63.0900 15.35656505491348
LEMUR-2-MONSON          
1 42839U 17042Q   26186.95252723  .00015912  00000+0  57413-3 0  9998
2 42839  97.4093   7.4417 0005136 288.1128  71.9552 15.28584381491039
LEMUR-2-FURIAUS         
1 42840U 17042R   26187.04037820  .00020443  00000+0  68534-3 0  9991
2 42840  97.3780   5.4983 0006714   5.4345 354.6968 15.30917624491094
LEMUR-2-PETERG          
1 42841U 17042S   26186.81866761  .00025768  00000+0  76529-3 0  9998
2 42841  97.3999  11.8886 0002843 266.1476  93.9442 15.34763406491293
LEMUR-2-DEMBITZ         
1 42842U 17042T   26186.47175137  .00025981  00000+0  87057-3 0  9996
2 42842  97.3831   7.9707 0005327 318.3139  41.7696 15.30893362491140
LEMUR-2-ZACHARY         
1 42845U 17042W   26186.83455797  .00057317  00000+0  94759-3 0  9997
2 42845  97.3591  18.8883 0002362 297.2879  62.8133 15.52038136492093
LEMUR-2-AMANDA-SVANTE   
1 48269U 21034B   26187.19863294  .00035315  00000+0  10207-2 0  9993
2 48269  97.5745 266.0000 0004036 164.2126 195.9244 15.35552160283973
LEMUR-2-SPECIAL-K       
1 48273U 21034F   26187.23722578  .00241712  00000+0  18453-2 0  9993
2 48273  97.5636 275.5626 0005773 220.9079 139.1750 15.71456484284674
LEMUR-2-EMBRIONOVIS     
1 56970U 23084AQ  26186.94212096  .00015631  00000+0  41899-3 0  9999
2 56970  97.6318 331.8697 0007698 242.7381 117.3080 15.38055358170569
LEMUR-2-DEVERILL-M-T    
1 57391U 23100F   26187.07492937  .00029242  00000+0  71542-3 0  9996
2 57391  99.4455 231.3007 0004901 336.6467  23.4549 15.40758903164154
LEMUR-2-BASS            
1 58259U 23174D   26187.20664514  .00019495  00000+0  43196-3 0  9991
2 58259  97.3840 272.1926 0007959 104.5518 255.6613 15.43775195148294
LEMUR-2-JK0903EM1407    
1 58336U 23174CJ  26187.16204707  .00029266  00000+0  47454-3 0  9994
2 58336  97.3917 278.1800 0004386  61.7347 298.4348 15.52717559148679
LEMUR-2-MJR092620       
1 58340U 23174CN  26187.19763673  .00020481  00000+0  42637-3 0  9992
2 58340  97.3970 277.5857 0006146  59.8947 300.2910 15.45621998148588
LEMUR-2-NIMBUS2000      
1 58899U 24022A   26187.11256276  .00023449  00000+0  57195-3 0  9994
2 58899  97.4093  37.3587 0009612  58.1498 302.0683 15.40835853135181
LEMUR-2-VALHALLA        
1 58900U 24022B   26187.11394680  .00016850  00000+0  41937-3 0  9994
2 58900  97.4091  37.3384 0010110  54.0939 306.1244 15.40286731135180
LEMUR-2-CAEL            
1 58903U 24022E   26187.17244902  .00017904  00000+0  42629-3 0  9994
2 58903  97.4074  38.3674 0008082  40.2046 319.9797 15.41636766135260
LEMUR-2-JOHNNYTRUONG    
1 59146U 24043BA  26186.93050260  .00043923  00000+0  50315-3 0  9993
2 59146  97.5395 339.8154 0004448 120.9550 239.2145 15.61990755130963
LEMUR-2-TOMATOKECHUP    
1 60471U 24149D   26187.19245734  .00011416  00000+0  32314-3 0  9995
2 60471  97.3790 269.2922 0002876 138.8733 221.2729 15.36452734105082
LEMUR-2-STELLA          
1 60533U 24149BT  26187.14136471  .00011150  00000+0  64835-3 0  9994
2 60533  97.6729 269.6836 0001246 106.9534 253.1833 15.12243072103365
LEMUR-2-MARHISYAM       
1 60536U 24149BW  26187.19494461  .00010677  00000+0  63118-3 0  9994
2 60536  97.6870 270.2058 0002871  83.2434 276.9123 15.11655906103356
LEMUR-2-AHMED-ASRAR     
1 60576U 24149DN  26186.81372956  .00013114  00000+0  74248-3 0  9995
2 60576  97.6997 271.9881 0000415 275.0383  85.0800 15.13163573103388
LEMUR-2-LLOYD           
1 60577U 24149DP  26187.20079730  .00009691  00000+0  60592-3 0  9996
2 60577  97.6737 268.3441 0005043  93.4282 266.7523 15.09635414103265
LEMUR-2-SQUIRRELCOMM    
1 60578U 24149DQ  26187.17583308  .00007246  00000+0  48284-3 0  9992
2 60578  97.6702 268.0291 0004922 359.7505   0.3719 15.07381618103260
LEMUR-2-SIERRINI        
1 60579U 24149DR  26187.15601692  .00011740  00000+0  69852-3 0  9996
2 60579  97.6837 269.8365 0006597 113.4903 246.7020 15.11383664103324
LEMUR-2-WILSON          
1 62694U 25009CP  26187.16776308  .00003349  00000+0  30951-3 0  9994
2 62694  97.7019 265.2997 0002654   8.5969 351.5297 14.95253729 80193
LEMUR-2-STAR-FOX        
1 62696U 25009CR  26187.20463988  .00007286  00000+0  54907-3 0  9999
2 62696  97.6928 268.6782 0003531  71.7740 288.3869 15.02771340 80416
LEMUR-2-ARIANNA         
1 62699U 25009CU  26187.20310691  .00007087  00000+0  53415-3 0  9996
2 62699  97.6866 268.4362 0003872  76.7600 283.4057 15.02770802 80417
LEMUR-2-ALISIA          
1 62706U 25009DB  26187.17739442  .00009054  00000+0  67552-3 0  9993
2 62706  97.6949 269.2183 0003349 158.7297 201.4068 15.03079135103016
